NORAD_CAT_ID,OBJECT_NAME,OBJECT_TYPE,EPOCH,MEAN_MOTION,ECCENTRICITY,INCLINATION,RA_OF_ASC_NODE,ARG_OF_PERICENTER,MEAN_ANOMALY,BSTAR,MEAN_MOTION_DOT,MEAN_MOTION_DDOT,TLE_LINE0,TLE_LINE1,TLE_LINE2,SEMIMAJOR_AXIS,PERIOD,APOGEE,PERIGEE,DECAYED
52454.0,STARLINK-3888,PAYLOAD,2023-06-05 08:03:19,15.08839031,0.0001064,53.2179,275.7914,121.9203,238.1893,3.6103e-05,2.87e-06,0.0,0 STARLINK-3888,1 52454U 22049D   23156.33563682  .00000287  00000-0  36103-4 0  9994,2 52454  53.2179 275.7914 0001064 121.9203 238.1893 15.08839031 60045,6917.883,95.438,540.484,539.012,0.0
52454.0,STARLINK-3888,PAYLOAD,2023-06-05 14:24:51,15.08843527,9.27e-05,53.2175,274.6086,85.6314,274.4784,8.3924e-05,1.048e-05,0.0,0 STARLINK-3888,1 52454U 22049D   23156.60059351  .00001048  00000-0  83924-4 0  9996,2 52454  53.2175 274.6086 0000927  85.6314 274.4784 15.08843527 59927,6917.87,95.437,540.376,539.093,0.0
52454.0,STARLINK-3888,PAYLOAD,2023-06-05 17:35:37,15.0884675,8.91e-05,53.2169,274.0128,91.0507,269.0587,6.7638e-05,7.89e-06,0.0,0 STARLINK-3888,1 52454U 22049D   23156.73307114  .00000789  00000-0  67638-4 0  9998,2 52454  53.2169 274.0128 0000891  91.0507 269.0587 15.08846750 60100,6917.86,95.437,540.341,539.108,0.0
52454.0,STARLINK-3888,PAYLOAD,2023-06-06 07:54:06,15.08838622,7.37e-05,53.2162,271.3359,95.599,264.5087,2.2645e-05,7.3e-07,0.0,0 STARLINK-3888,1 52454U 22049D   23157.32923631  .00000073  00000-0  22645-4 0  9997,2 52454  53.2162 271.3359 0000737  95.5990 264.5087 15.08838622 60196,6917.885,95.438,540.259,539.24,0.0
52454.0,STARLINK-3888,PAYLOAD,2023-06-06 11:04:52,15.0884245,7.23e-05,53.2167,270.7408,98.2042,261.9033,-2.0702e-05,-6.17e-06,0.0,0 STARLINK-3888,1 52454U 22049D   23157.46171436 -.00000617  00000-0 -20702-4 0  9998,2 52454  53.2167 270.7408 0000723  98.2042 261.9033 15.08842450 60053,6917.873,95.437,540.238,539.238,0.0
52454.0,STARLINK-3888,PAYLOAD,2023-06-06 17:26:24,15.0885015,8.94e-05,53.217,269.5524,120.175,239.933,1.7687e-05,-6e-08,0.0,0 STARLINK-3888,1 52454U 22049D   23157.72666828 -.00000006  00000-0  17687-4 0  9990,2 52454  53.2170 269.5524 0000894 120.1750 239.9330 15.08850150 60255,6917.849,95.437,540.333,539.096,0.0
52454.0,STARLINK-3888,PAYLOAD,2023-06-07 07:44:53,15.0883502,0.000117,53.2164,266.8766,104.4639,255.6483,1.3161e-05,-7.8e-07,0.0,0 STARLINK-3888,1 52454U 22049D   23158.32283963 -.00000078  00000-0  13161-4 0  9994,2 52454  53.2164 266.8766 0001170 104.4639 255.6483 15.08835020 60348,6917.896,95.438,540.57,538.951,0.0
52454.0,STARLINK-3888,PAYLOAD,2023-06-07 18:52:34,15.08844087,0.0001093,53.2163,264.7953,106.0307,254.0806,6.9923e-05,8.25e-06,0.0,0 STARLINK-3888,1 52454U 22049D   23158.78651250  .00000825  00000-0  69923-4 0  9998,2 52454  53.2163 264.7953 0001093 106.0307 254.0806 15.08844087 60251,6917.868,95.437,540.489,538.977,0.0
52454.0,STARLINK-3888,PAYLOAD,2023-06-08 12:21:49,15.08841558,9.26e-05,53.217,261.5241,98.9183,261.1914,5.0661e-05,5.19e-06,0.0,0 STARLINK-3888,1 52454U 22049D   23159.51515705  .00000519  00000-0  50661-4 0  9993,2 52454  53.2170 261.5241 0000926  98.9183 261.1914 15.08841558 60360,6917.876,95.437,540.381,539.1,0.0
52454.0,STARLINK-3888,PAYLOAD,2023-06-08 18:43:21,15.08846557,9.11e-05,53.217,260.3347,98.8807,261.2289,9.3128e-05,1.195e-05,0.0,0 STARLINK-3888,1 52454U 22049D   23159.78011251  .00001195  00000-0  93128-4 0  9995,2 52454  53.2170 260.3347 0000911  98.8807 261.2289 15.08846557 60405,6917.86,95.437,540.356,539.095,0.0
52454.0,STARLINK-3888,PAYLOAD,2023-06-09 10:37:13,15.08839562,0.0001059,53.2174,257.3613,133.1274,226.9807,3.5745e-05,2.81e-06,0.0,0 STARLINK-3888,1 52454U 22049D   23160.44251950  .00000281  00000-0  35745-4 0  9998,2 52454  53.2174 257.3613 0001059 133.1274 226.9807 15.08839562 60509,6917.882,95.438,540.479,539.014,0.0
52454.0,STARLINK-3888,PAYLOAD,2023-06-09 15:23:22,15.08843665,7.12e-05,53.217,256.4696,86.8771,273.2302,4.0999e-05,3.65e-06,0.0,0 STARLINK-3888,1 52454U 22049D   23160.64123722  .00000365  00000-0  40999-4 0  9995,2 52454  53.2170 256.4696 0000712  86.8771 273.2302 15.08843665 60691,6917.869,95.437,540.227,539.242,0.0
52454.0,STARLINK-3888,PAYLOAD,2023-06-09 23:20:19,15.0883177,7.87e-05,53.2171,254.9834,99.509,260.5991,0.00011173,1.491e-05,0.0,0 STARLINK-3888,1 52454U 22049D   23160.97244351  .00001491  00000-0  11173-3 0  9995,2 52454  53.2171 254.9834 0000787  99.5090 260.5991 15.08831770 60749,6917.906,95.438,540.315,539.226,0.0
52454.0,STARLINK-3888,PAYLOAD,2023-06-10 08:52:38,15.08830022,0.000121,53.2158,253.1985,83.8803,276.2327,1.4001e-05,-6.5e-07,0.0,0 STARLINK-3888,1 52454U 22049D   23161.36989114 -.00000065  00000-0  14001-4 0  9993,2 52454  53.2158 253.1985 0001210  83.8803 276.2327 15.08830022 60647,6917.911,95.438,540.613,538.939,0.0
52454.0,STARLINK-3888,PAYLOAD,2023-06-10 15:14:10,15.08835283,0.0001072,53.2159,252.0074,85.8186,274.2929,-1.0336e-05,-4.52e-06,0.0,0 STARLINK-3888,1 52454U 22049D   23161.63484856 -.00000452  00000-0 -10336-4 0  9994,2 52454  53.2159 252.0074 0001072  85.8186 274.2929 15.08835283 60681,6917.895,95.438,540.501,539.018,0.0
52454.0,STARLINK-3888,PAYLOAD,2023-06-11 11:54:10,15.08845383,9.45e-05,53.2163,248.1442,77.9616,282.1482,7.9981e-05,9.86e-06,0.0,0 STARLINK-3888,1 52454U 22049D   23162.49596043  .00000986  00000-0  79981-4 0  9992,2 52454  53.2163 248.1442 0000945  77.9616 282.1482 15.08845383 60975,6917.864,95.437,540.383,539.075,0.0
52454.0,STARLINK-3888,PAYLOAD,2023-06-12 11:44:58,15.0883416,9.57e-05,53.2163,243.6836,74.8242,285.2856,0.00010749,1.423e-05,0.0,0 STARLINK-3888,1 52454U 22049D   23163.48956697  .00001423  00000-0  10749-3 0  9990,2 52454  53.2163 243.6836 0000957  74.8242 285.2856 15.08834160 60965,6917.898,95.438,540.425,539.101,0.0
52454.0,STARLINK-3888,PAYLOAD,2023-06-13 05:14:13,15.08838589,0.0001061,53.2161,240.4121,82.4166,277.6947,-1.7561e-05,-5.67e-06,0.0,0 STARLINK-3888,1 52454U 22049D   23164.21820767 -.00000567  00000-0 -17561-4 0  9990,2 52454  53.2161 240.4121 0001061  82.4166 277.6947 15.08838589 61070,6917.885,95.438,540.484,539.016,0.0
52454.0,STARLINK-3888,PAYLOAD,2023-06-13 14:46:31,15.08842023,0.0001086,53.2158,238.628,82.5423,277.5693,1.2938e-05,-8.2e-07,0.0,0 STARLINK-3888,1 52454U 22049D   23164.61564415 -.00000082  00000-0  12938-4 0  9993,2 52454  53.2158 238.6280 0001086  82.5423 277.5693 15.08842023 61294,6917.874,95.437,540.49,538.988,0.0
52454.0,STARLINK-3888,PAYLOAD,2023-06-14 08:15:46,15.08838903,0.000115,53.2167,235.3553,90.6176,269.4948,3.2492e-05,2.29e-06,0.0,0 STARLINK-3888,1 52454U 22049D   23165.34428569  .00000229  00000-0  32492-4 0  9992,2 52454  53.2167 235.3553 0001150  90.6176 269.4948 15.08838903 61248,6917.884,95.438,540.544,538.953,0.0
52454.0,STARLINK-3888,PAYLOAD,2023-06-15 09:41:56,15.08834889,0.0001102,53.2166,230.597,104.5026,255.6088,2.9678e-05,1.85e-06,0.0,0 STARLINK-3888,1 52454U 22049D   23166.40412933  .00000185  00000-0  29678-4 0  9991,2 52454  53.2166 230.5970 0001102 104.5026 255.6088 15.08834889 61569,6917.896,95.438,540.523,538.999,0.0
52454.0,STARLINK-3888,PAYLOAD,2023-06-16 11:08:06,15.08845991,9.9e-05,53.2158,225.8417,86.237,273.8735,0.00012255,1.663e-05,0.0,0 STARLINK-3888,1 52454U 22049D   23167.46396098  .00001663  00000-0  12255-3 0  9995,2 52454  53.2158 225.8417 0000990  86.2370 273.8735 15.08845991 61720,6917.862,95.437,540.412,539.042,0.0
52454.0,STARLINK-3888,PAYLOAD,2023-06-16 12:43:29,15.08849009,0.0001045,53.2164,225.5434,81.8514,278.2597,0.00014559,2.031e-05,0.0,0 STARLINK-3888,1 52454U 22049D   23167.53019862  .00002031  00000-0  14559-3 0  9993,2 52454  53.2164 225.5434 0001045  81.8514 278.2597 15.08849009 61578,6917.853,95.437,540.441,538.995,0.0
52454.0,STARLINK-3888,PAYLOAD,2023-06-16 23:51:11,15.08835943,0.0001112,53.2157,223.4627,91.94,268.1719,7.0435e-05,8.33e-06,0.0,0 STARLINK-3888,1 52454U 22049D   23167.99388851  .00000833  00000-0  70435-4 0  9994,2 52454  53.2157 223.4627 0001112  91.9400 268.1719 15.08835943 61804,6917.893,95.438,540.527,538.989,0.0
52454.0,STARLINK-3888,PAYLOAD,2023-06-17 12:34:17,15.08834437,0.0001228,53.2145,221.0822,98.7159,261.3972,4.6083e-05,4.46e-06,0.0,0 STARLINK-3888,1 52454U 22049D   23168.52381175  .00000446  00000-0  46083-4 0  9998,2 52454  53.2145 221.0822 0001228  98.7159 261.3972 15.08834437 61720,6917.897,95.438,540.612,538.913,0.0
52454.0,STARLINK-3888,PAYLOAD,2023-06-17 20:31:13,15.08835351,0.0001064,53.2161,219.5973,88.7958,271.3156,3.1151e-05,2.08e-06,0.0,0 STARLINK-3888,1 52454U 22049D   23168.85501231  .00000208  00000-0  31151-4 0  9997,2 52454  53.2161 219.5973 0001064  88.7958 271.3156 15.08835351 61777,6917.895,95.438,540.496,539.024,0.0
52454.0,STARLINK-3888,PAYLOAD,2023-06-18 02:52:45,15.08839457,0.0001118,53.2162,218.408,95.0588,265.0532,-6.8975e-06,-3.98e-06,0.0,0 STARLINK-3888,1 52454U 22049D   23169.11997125 -.00000398  00000-0 -68975-5 0  9995,2 52454  53.2162 218.4080 0001118  95.0588 265.0532 15.08839457 61976,6917.882,95.438,540.52,538.974,0.0
52454.0,STARLINK-3888,PAYLOAD,2023-06-18 20:22:00,15.08840862,0.0001095,53.2158,215.1359,85.0834,275.0283,-5.0839e-05,-1.097e-05,0.0,0 STARLINK-3888,1 52454U 22049D   23169.84861168 -.00001097  00000-0 -50839-4 0  9998,2 52454  53.2158 215.1359 0001095  85.0834 275.0283 15.08840862 61922,6917.878,95.438,540.5,538.985,0.0
52454.0,STARLINK-3888,PAYLOAD,2023-06-19 09:05:05,15.08836377,0.0001066,53.2157,212.7565,88.9958,271.1157,8.7618e-05,1.107e-05,0.0,0 STARLINK-3888,1 52454U 22049D   23170.37853204  .00001107  00000-0  87618-4 0  9995,2 52454  53.2157 212.7565 0001066  88.9958 271.1157 15.08836377 62160,6917.891,95.438,540.494,539.019,0.0
52454.0,STARLINK-3888,PAYLOAD,2023-06-19 20:12:47,15.0883978,0.0001062,53.2159,210.6749,88.3329,271.7785,7.4506e-05,8.98e-06,0.0,0 STARLINK-3888,1 52454U 22049D   23170.84221082  .00000898  00000-0  74506-4 0  9998,2 52454  53.2159 210.6749 0001062  88.3329 271.7785 15.08839780 62079,6917.881,95.438,540.481,539.011,0.0
